OSCAR 7 (AO-7)          
1 07530U 74089B   18307.90795142 -.00000031  00000-0  87104-4 0  9998
2 07530 101.7081 273.2287 0012482  65.0898 355.7707 12.53635167 12106
UOSAT 2 (UO-11)         
1 14781U 84021B   18308.54282818  .00000072  00000-0  15070-4 0  9990
2 14781  97.6357 338.6668 0008137 352.6584   7.4510 14.83041070865242
LUSAT (LO-19)           
1 20442U 90005G   18307.86922597  .00000012  00000-0  20474-4 0  9997
2 20442  98.6219 245.5680 0012888  97.3332 262.9317 14.32908848503839
ITAMSAT (IO-26)         
1 22826U 93061D   18307.93085566 -.00000000  00000-0  17699-4 0  9997
2 22826  98.8740 286.7131 0007974 291.9097  68.1237 14.30375552309486
RADIO ROSTO (RS-15)     
1 23439U 94085A   18307.93062567 -.00000018  00000-0  69345-3 0  9994
2 23439  64.8135 122.8342 0152661 156.4435 280.4942 11.27568938982324
JAS-2 (FO-29)           
1 24278U 96046B   18308.50321071  .00000003  00000-0  35407-4 0  9993
2 24278  98.5141 127.9189 0351318 106.7775 257.2214 13.53086643 97215
TECHSAT 1B (GO-32)      
1 25397U 98043D   18307.89225552 -.00000013  00000-0  13594-4 0  9998
2 25397  98.6624 246.0897 0001359  24.9096 335.2148 14.23654274 55607
ISS (ZARYA)             
1 25544U 98067A   18308.74906700  .00001487  00000-0  29952-4 0  9994
2 25544  51.6422  38.2564 0004536  13.0174 136.9640 15.53898562140370
PCSAT (NO-44)           
1 26931U 01043C   18308.53595200 -.00000052  00000-0  11731-4 0  9993
2 26931  67.0516 227.2590 0006732 258.6190 101.4155 14.30522043892622
SAUDISAT 1C (SO-50)     
1 27607U 02058C   18308.24217325 -.00000031  00000-0  16541-4 0  9999
2 27607  64.5565  21.9044 0077439 299.5959  59.7442 14.75493016853628
CUTE-1 (CO-55)          
1 27844U 03031E   18307.96838622  .00000059  00000-0  46435-4 0  9995
2 27844  98.6873 314.5656 0009278 332.9615  27.1078 14.22141781796023
CUBESAT XI-IV (CO-57)   
1 27848U 03031J   18308.52979167  .00000046  00000-0  40905-4 0  9994
2 27848  98.6957 315.5612 0009332 342.7196  17.3663 14.21742416796007
MOZHAYETS 4 (RS-22)     
1 27939U 03042A   18308.56260311  .00000083  00000-0  23479-4 0  9993
2 27939  98.0095  84.2450 0014252  66.9290 293.3414 14.66728772807395
CUBESAT XI-V (CO-58)    
1 28895U 05043F   18307.94979669  .00000108  00000-0  29621-4 0  9995
2 28895  97.9285  93.9119 0016509 352.4528   7.6424 14.63597292694084
CUTE-1.7+APD II (CO-65) 
1 32785U 08021C   18308.17280182  .00000189  00000-0  26092-4 0  9996
2 32785  97.5471 313.6689 0011741 297.5250  62.4773 14.88198934569992
DELFI-C3 (DO-64)        
1 32789U 08021G   18307.68542011  .00001254  00000-0  89078-4 0  9994
2 32789  97.4968 358.8683 0012684 174.8340 185.3020 15.06419000572686
SEEDS II (CO-66)        
1 32791U 08021J   18308.03175065  .00000276  00000-0  33544-4 0  9998
2 32791  97.5326 319.1846 0011853 273.4622  86.5241 14.90661963570342
YUBILEINY (RS-30)       
1 32953U 08025A   18308.56477424  .00000020  00000-0  75656-4 0  9991
2 32953  82.5000 285.3688 0017909 264.7741  95.1300 12.43086360474215
KKS-1 (KISEKI)          
1 33499U 09002H   18308.50033591  .00000086  00000-0  20804-4 0  9997
2 33499  98.3563 134.8604 0008706 199.3918 160.6960 14.75376422525877
SWISSCUBE               
1 35932U 09051B   18307.92322827  .00000108  00000-0  35428-4 0  9996
2 35932  98.5632 102.6018 0008444 136.0060 224.1811 14.56211301483739
BEESAT                  
1 35933U 09051C   18308.42173096  .00000108  00000-0  35333-4 0  9990
2 35933  98.5668 104.7482 0006528 144.6995 215.4635 14.56309462483957
ITUPSAT 1               
1 35935U 09051E   18308.41851873  .00000075  00000-0  28343-4 0  9993
2 35935  98.5780 104.9944 0008852 143.2355 216.9450 14.55480089483726
XIWANG-1 (HOPE-1)       
1 36122U 09072B   18308.46957538 -.00000045  00000-0 -66514-5 0  9997
2 36122 100.0741 316.5224 0007917 144.7711 215.3929 13.16346737427118
JUGNU                   
1 37839U 11058B   18307.30554958  .00000302  00000-0  19382-4 0  9995
2 37839  19.9615 273.6562 0018826 341.1606 178.0950 14.12633100365061
SRMSAT                  
1 37841U 11058D   18307.45071597  .00000302  00000-0  20557-4 0  9993
2 37841  19.9730 324.8517 0011675 219.7321 288.4816 14.10618047364562
M-CUBED & EXP-1 PRIME   
1 37855U 11061F   18308.38428997  .00000765  00000-0  46747-4 0  9997
2 37855 101.7210  82.6657 0175281  27.2049 333.8213 15.04846358382734
STRAND-1                
1 39090U 13009E   18307.83774082  .00000042  00000-0  30119-4 0  9996
2 39090  98.5067 152.3169 0008157 239.9317 120.1060 14.35056603297832
SOMP                    
1 39134U 13015E   18307.61114913  .00000862  00000-0  49731-4 0  9999
2 39134  64.8651  35.7754 0007060 316.7579  43.2993 15.19544377306087
BEESAT-3                
1 39135U 13015F   18307.66739392  .00000938  00000-0  57107-4 0  9999
2 39135  64.8704  50.7834 0009127 249.6257 110.3889 15.16981094305803
BEESAT-2                
1 39136U 13015G   18307.75274088  .00000683  00000-0  44905-4 0  9995
2 39136  64.8707  53.6775 0010948 245.4945 114.5040 15.16432361305368
ZACUBE-1 (TSHEPISOSAT)  
1 39417U 13066B   18308.10634891  .00000214  00000-0  33268-4 0  9995
2 39417  97.5775 329.2019 0060287  57.6298 303.0730 14.81003359267502
GOMX 1                  
1 39430U 13066Q   18308.40387219  .00000118  00000-0  30750-4 0  9998
2 39430  97.7148 275.3034 0149952 247.9964 110.5253 14.59149633263601
CUBEBUG-2 (LO-74)       
1 39440U 13066AA  18307.95566356  .00000209  00000-0  35821-4 0  9994
2 39440  97.6000 314.8788 0081861 101.4055 259.6365 14.75743000265339
FUNCUBE-1 (AO-73)       
1 39444U 13066AE  18307.96019692  .00000246  00000-0  36604-4 0  9996
2 39444  97.5776 330.7624 0059318  53.0738 307.5889 14.81800986265765
UWE-3                   
1 39446U 13066AG  18308.00970429  .00000202  00000-0  33410-4 0  9992
2 39446  97.5872 321.5775 0071607  79.9897 280.9386 14.78277571265778
SPROUT                  
1 39770U 14029E   18308.36173210  .00000552  00000-0  67650-4 0  9995
2 39770  97.8801  48.2944 0010082 106.3911 253.8404 14.87038014241193
UNISAT-6                
1 40012U 14033C   18308.54409770  .00000160  00000-0  31218-4 0  9990
2 40012  97.7857 179.4523 0059706 106.6246 254.1530 14.73884372235372
DUCHIFAT-1              
1 40021U 14033M   18307.97554470  .00000351  00000-0  41875-4 0  9996
2 40021  97.9152 226.9340 0014413  78.3803 281.9031 14.90430504237770
FUNCUBE-3 (EO-79)       
1 40025U 14033R   18307.81235252  .00000201  00000-0  27470-4 0  9996
2 40025  97.9019 222.8904 0013931  86.0512 274.2297 14.88803771237567
NUDT-PHONESAT           
1 40900U 15049B   18308.39871370  .00001691  00000-0  77351-4 0  9994
2 40900  97.4415 315.0876 0011540 258.1907 207.6287 15.21876484173232
ZDPS 2A                 
1 40901U 15049C   18308.57822584  .00000555  00000-0  31177-4 0  9992
2 40901  97.4609 312.7658 0011960 271.4411 209.6852 15.17334176172943
ZDPS 2B                 
1 40902U 15049D   18308.37140949  .00000517  00000-0  29427-4 0  9992
2 40902  97.4523 310.3660 0011990 267.9017 202.3432 15.17119218172897
XW-2A                   
1 40903U 15049E   18308.41718347  .00001452  00000-0  37228-4 0  9998
2 40903  97.3702 344.5960 0012262 241.0520 246.5487 15.41013807175395
KAITUO 1A               
1 40904U 15049F   18308.55899887  .00000330  00000-0  21084-4 0  9990
2 40904  97.4632 309.5648 0013050 273.2982 199.6739 15.15154776172755
2015-049G               
1 40905U 15049G   18308.41314929  .00000436  00000-0  27514-4 0  9996
2 40905  97.4643 307.2743 0014075 267.1214 199.1119 15.14097278172633
XW-2C                   
1 40906U 15049H   18308.40104933  .00000777  00000-0  44640-4 0  9995
2 40906  97.4635 309.3682 0013283 264.5530 205.3783 15.15380150172724
XW-2D                   
1 40907U 15049J   18308.40491122  .00000791  00000-0  45175-4 0  9995
2 40907  97.4617 309.0568 0012615 261.8835 207.9447 15.15544794172733
LILACSAT 2              
1 40908U 15049K   18308.52008961  .00000242  00000-0  17073-4 0  9991
2 40908  97.4731 308.3416 0014227 264.4544 211.6219 15.13624297172590
XW-2F                   
1 40910U 15049M   18308.30796694  .00000673  00000-0  37584-4 0  9994
2 40910  97.4617 310.5317 0013298 256.0446 229.5788 15.16826177172690
XW-2B                   
1 40911U 15049N   18308.49586044  .00000478  00000-0  28700-4 0  9994
2 40911  97.4649 309.7327 0012475 261.8116 219.0449 15.15481224172643
KAITUO 1B               
1 40912U 15049P   18308.48609094  .00001056  00000-0  53549-4 0  9997
2 40912  97.4518 313.8685 0013607 238.9414 274.4527 15.19082493172962
TIANWANG 1C (TW-1C)     
1 40926U 15051B   18308.48267352  .00007722  00000-0  13275-3 0  9999
2 40926  97.1706 350.2530 0011385 122.8150 344.5952 15.51328713175043
TIANWANG 1A (TW-1A)     
1 40928U 15051D   18308.52144628  .00002332  00000-0  61500-4 0  9993
2 40928  97.1731 339.6948 0011812 164.9516 331.7556 15.39427394174368
LAPAN-A2 (IO-86)        
1 40931U 15052B   18308.14539279  .00000715  00000-0  10573-4 0  9993
2 40931   6.0017 232.0685 0012911 191.7123 168.3118 14.76589505167728
E-ST@R-II               
1 41459U 16025D   18308.43598485  .00000548  00000-0  32585-4 0  9997
2 41459  98.1226  18.4871 0170793  38.5561 322.7715 15.04804746138511
AAUSAT 4                
1 41460U 16025E   18308.40632568  .00001982  00000-0  10465-3 0  9992
2 41460  98.1166  19.1984 0160550  33.5912 327.5375 15.06410245138596
NUSAT 1 (LO-87)         
1 41557U 16033B   18308.49899853  .00000935  00000-0  37952-4 0  9997
2 41557  97.4316  32.2575 0013479  21.9560 338.2254 15.27061241135572
BEESAT-4                
1 41619U 16040W   18307.88028730  .00001085  00000-0  49766-4 0  9997
2 41619  97.3996   9.0026 0013203  99.6912 260.5817 15.22505495119343
ALSAT 1N                
1 41789U 16059G   18308.39390827  .00000065  00000-0  21487-4 0  9998
2 41789  98.1036   9.0792 0028585   9.2209 350.9512 14.64191478112537
CAS-2T & KS-1Q          
1 41847U 16066G   18307.69942863  .00000050  00000-0  18223-4 0  9994
2 41847  98.7375 339.4391 0366029 189.7826 169.6099 14.37933064104379
NAYIF-1 (EO-88)         
1 42017U 17008BX  18308.48124518  .00001177  00000-0  50267-4 0  9993
2 42017  97.4334  12.6199 0004924 238.2365 121.8394 15.24854915 95446
LILACSAT-1              
1 42725U 98067ME  18308.52669892  .00038058  00000-0  21978-3 0  9991
2 42725  51.6381 358.3367 0005524  33.8066 107.1887 15.78231158 82613
MAX VALIER SAT          
1 42778U 17036P   18308.13731053  .00000737  00000-0  35697-4 0  9999
2 42778  97.3874   5.4202 0011070 303.3103  56.7072 15.21582542 75782
FOX-1B (AO-91)          
1 43017U 17073E   18307.79613748  .00000255  00000-0  25525-4 0  9992
2 43017  97.7128 233.1504 0259207 176.8227 183.4709 14.78256124 51735
FOX-1D (AO-92)          
1 43137U 18004AC  18307.92531134  .00000780  00000-0  36213-4 0  9992
2 43137  97.5182  10.9087 0008736 340.9539  19.1370 15.22995176 44987
